MALLIGYONG-1            
1 58400U 23179A   24132.10532297  .00015075  00000+0  65416-3 0  9992
2 58400  97.4079  19.5186 0010304  42.6030 317.6004 15.22383392 26083
